satname,norad_id,inclination_deg,eccentricity,mean_motion_rev_per_day,perigee_km,apogee_km,l1,l2
STARLINK-1255,45399,53.0413,0.0002302,15.50014267,415.1202060387095,418.24854179926206,1 45399U 20019AR  26059.53836831  .00092106  00000+0  16041-2 0  9992,2 45399  53.0413 146.7188 0002302 247.5368 112.5396 15.50014267329018
STARLINK-1260,45404,53.1613,0.0001184,15.30190793,474.431119859687,476.05400013949475,1 45404U 20019AW  26059.61898417  .00001678  00000+0  68779-4 0  9997,2 45404  53.1613 171.3739 0001184  90.5330 269.5806 15.30190793328583
STARLINK-1263,45405,53.1594,0.0001208,15.30210036,474.3572225859516,476.01298520625187,1 45405U 20019AX  26059.60738152 -.00010511  00000+0 -34313-3 0  9990,2 45405  53.1594 171.4567 0001208  88.9784 271.1355 15.30210036328584
STARLINK-1265,45406,53.1605,0.0001358,15.3019095,474.3114023406415,476.1727801018169,1 45406U 20019AY  26059.68746072 -.00002366  00000+0 -67782-4 0  9995,2 45406  53.1605 171.1600 0001358  77.8750 282.2403 15.30190950328599
STARLINK-1278,45408,53.0459,9.37e-05,15.53916804,404.66756704667296,405.9387837355416,1 45408U 20019BA  26059.91668981  .00071191  00000+0  10827-2 0  9991,2 45408  53.0459 172.8105 0000937 116.6984 272.6755 15.53916804  5907
STARLINK-1296,45412,53.1593,8.85e-05,15.30186203,474.64973977997124,475.86279038789144,1 45412U 20019BE  26059.68113127 -.00002013  00000+0 -55886-4 0  9992,2 45412  53.1593 171.0905 0000885  92.1423 267.9679 15.30186203328591
STARLINK-1298,45413,53.0372,0.0007432,15.91021072,294.46158828238276,304.38711547581715,1 45413U 20019BF  26059.91668981  .00249005  34034-4  77899-3 0  9990,2 45413  53.0372  98.7977 0007432 343.6565 139.1682 15.91021072  6064
STARLINK-1309,45414,53.068,0.0003788,15.5293691,405.5857678392049,410.7270637310039,1 45414U 20019BG  26059.91668981  .00036877  00000+0  58707-3 0  9990,2 45414  53.0680 165.9342 0003788   4.2584 197.7071 15.52936910  5920
STARLINK-1316,45415,53.1602,0.0001267,15.30190602,474.3748070344318,476.1114535594497,1 45415U 20019BH  26059.59580950 -.00000369  00000+0 -34174-6 0  9998,2 45415  53.1602 171.5390 0001267  82.3109 277.8035 15.30190602328601
STARLINK-1318,45416,53.0235,0.0004325,16.27701635,195.87917815164747,201.56816263153632,1 45416U 20019BJ  26059.54136737  .04006669  12049-4  10578-2 0  9994,2 45416  53.0235  84.5296 0004325  10.3766 349.7363 16.27701635329794
STARLINK-1286,45417,53.0486,0.0002258,15.50092796,414.920665570593,417.9891032655969,1 45417U 20019BK  26059.71101995  .00036705  00000+0  64677-3 0  9991,2 45417  53.0486 173.8396 0002258  62.0433 298.0803 15.50092796328839
STARLINK-1308,45419,53.0538,7.13e-05,15.49396213,418.00662327536975,418.9758224599518,1 45419U 20019BM  26059.65452646  .00029374  00000+0  53253-3 0  9990,2 45419  53.0538 195.4476 0000713  45.6212 314.4854 15.49396213328270
STARLINK-1329,45531,53.0507,0.0002068,15.54171475,403.1594569852441,405.96478134093013,1 45531U 20025A   26059.45172919  .00091658  00000+0  13754-2 0  9997,2 45531  53.0507 126.0256 0002068 260.8000  99.2775 15.54171475324013
STARLINK-1338,45532,53.0503,0.0004776,15.52828273,405.23164322183675,411.71421302518047,1 45532U 20025B   26059.50405968  .00082713  00000+0  13049-2 0  9996,2 45532  53.0503 129.0557 0004776 316.2928  43.7703 15.52828273323972
STARLINK-1350,45535,53.0725,0.0001767,15.35802295,457.33045504134316,459.7465361614877,1 45535U 20025E   26059.29069705  .00011187  00000+0  32693-3 0  9994,2 45535  53.0725  77.2772 0001767  55.9829 304.1341 15.35802295324710
STARLINK-1362,45538,53.1619,0.0001307,15.30195118,474.33391120942997,476.1253812507548,1 45538U 20025H   26059.51191189 -.00001695  00000+0 -45105-4 0  9992,2 45538  53.1619 143.6258 0001307  79.6931 280.4217 15.30195118323777
STARLINK-1368,45540,53.161,0.0001582,15.30188284,474.16584567515383,476.3342573382506,1 45540U 20025K   26059.52144367  .00000748  00000+0  37413-4 0  9991,2 45540  53.1610 143.9156 0001582 112.8490 247.2678 15.30188284323763
STARLINK-1371,45542,53.0519,0.0001876,15.4538807,428.9607927176203,431.51529503408256,1 45542U 20025M   26059.50465115  .00078145  00000+0  16023-2 0  9996,2 45542  53.0519 133.2434 0001876 275.9708  84.1084 15.45388070323919
STARLINK-1372,45543,53.1622,0.0001274,15.30186077,474.3835189529964,476.12976365279974,1 45543U 20025N   26059.62884879  .00000071  00000+0  14527-4 0  9994,2 45543  53.1622 143.1102 0001274  84.9931 275.1216 15.30186077322887
STARLINK-1373,45544,53.0516,0.0004859,15.48892018,416.662902542781,423.2692991361773,1 45544U 20025P   26059.47546154  .00083902  00000+0  15219-2 0  9990,2 45544  53.0516 133.1742 0004859 323.3553  36.7121 15.48892018323919
STARLINK-1294,45551,53.0254,0.0002183,16.18890057,221.1262645046063,224.00813195755472,1 45551U 20025W   26059.57874472  .01976733  45636-2  11853-2 0  9997,2 45551  53.0254  20.9831 0002183 154.6598 205.4547 16.18890057325491
STARLINK-1327,45555,53.0484,0.0005635,15.51966196,407.160215384808,414.8115568774774,1 45555U 20025AA  26059.51414973  .00087077  00000+0  14155-2 0  9995,2 45555  53.0484 110.8574 0005635  17.4763 342.6439 15.51966196324226
STARLINK-1356,45564,53.0526,0.0005522,15.43608415,431.70756696071203,439.23251457653623,1 45564U 20025AK  26059.54010061  .00045936  00000+0  10081-2 0  9990,2 45564  53.0526 117.3704 0005522 350.6067   9.4834 15.43608415324139
STARLINK-1357,45565,53.0539,0.000329,15.5333835,404.75484033311477,409.21945202129973,1 45565U 20025AL  26059.45613241  .00085366  00000+0  13218-2 0  9996,2 45565  53.0539  82.6129 0003290  36.4503 323.6730 15.53338350324622
STARLINK-1361,45567,53.0514,0.0007066,15.45931618,423.83240171168563,433.45174189595946,1 45567U 20025AN  26059.64359068  .00035791  00000+0  72848-3 0  9995,2 45567  53.0514 117.1045 0007066 354.3825   5.7101 15.45931618324157
STARLINK-1363,45568,53.0437,0.0008639,15.74420755,340.47077183728106,352.089219522416,1 45568U 20025AP  26059.30910181  .00089270  00000+0  60008-3 0  9994,2 45568  53.0437  84.4871 0008639  21.7229 338.4154 15.74420755324572
STARLINK-1366,45569,53.0435,0.0008511,15.73677287,342.67279732236875,354.1227047756047,1 45569U 20025AQ  26059.31994910  .00081650  00000+0  56763-3 0  9995,2 45569  53.0435  85.1585 0008511  20.1093 340.0259 15.73677287324569
STARLINK-1376,45570,53.1608,0.0001301,15.29359074,476.8351253959918,478.61902122786705,1 45570U 20025AR  26059.43948071  .00000216  00000+0  19818-4 0  9997,2 45570  53.1608 120.7147 0001301  87.2880 272.8269 15.29359074324084
STARLINK-1320,45572,53.0498,0.0008098,15.67095785,361.7556422682692,372.6804192761083,1 45572U 20025AT  26059.62772444  .00074317  00000+0  68082-3 0  9998,2 45572  53.0498  30.3932 0008098  24.6127 335.5273 15.67095785325383
STARLINK-1321,45573,53.0504,0.0004131,15.46557923,423.99314568283535,429.6153881575656,1 45573U 20025AU  26059.39341873  .00071862  00000+0  14171-2 0  9992,2 45573  53.0504 102.9252 0004131   4.1577 355.9463 15.46557923324020
STARLINK-1331,45578,53.0546,0.0003606,15.4656394,424.3327614303953,429.24047234289446,1 45578U 20025AZ  26059.59439633  .00067553  00000+0  13332-2 0  9991,2 45578  53.0546 108.6321 0003606  48.3280 311.8035 15.46563940324277
STARLINK-1333,45580,53.1618,0.0001357,15.30184518,474.3312901216259,476.1913024192336,1 45580U 20025BB  26059.48396761 -.00006305  00000+0 -20101-3 0  9999,2 45580  53.1618 120.5695 0001357  88.2700 271.8456 15.30184518324094
STARLINK-1335,45581,53.1155,0.0001293,15.20830119,502.4456107905444,504.225159549349,1 45581U 20025BC  26059.91668981  .01471186  00000+0  60175-1 0  9999,2 45581  53.1155 115.6250 0001293 114.7680 155.6439 15.20830119  5735
STARLINK-1337,45582,53.0537,0.0003973,15.56545047,394.97305773874723,400.3571100746194,1 45582U 20025BD  26059.76471391  .00096160  00000+0  13211-2 0  9994,2 45582  53.0537 105.0571 0003973  49.4069 310.7287 15.56545047324326
STARLINK-1347,45586,53.0469,0.0006035,15.52009176,406.76338413590565,414.9577041716984,1 45586U 20025BH  26059.28647002  .00084538  00000+0  13727-2 0  9997,2 45586  53.0469  74.8209 0006035  14.5034 345.6147 15.52009176324700
STARLINK-1364,45589,53.0525,0.000683,15.47671797,418.89327692163806,428.1843660938166,1 45589U 20025BL  26059.39450129  .00069306  00000+0  13152-2 0  9992,2 45589  53.0525 107.7117 0006830  19.1483 340.9779 15.47671797324259
STARLINK-1365,45590,53.0532,0.0002596,15.44036135,432.4431861568255,435.9801575872607,1 45590U 20025BM  26059.48038815  .00037307  00000+0  80986-3 0  9994,2 45590  53.0532 137.3698 0002596 358.2302   1.8694 15.44036135323867
STARLINK-1443,45660,53.1315,0.0001347,15.24269414,492.054579693563,493.90565864546716,1 45660U 20035D   26059.91668981  .01334534  00000+0  49765-1 0  9995,2 45660  53.1315 105.3609 0001347 112.7810 157.4902 15.24269414  5843
STARLINK-1446,45663,53.0247,6.37e-05,15.4242911,438.5083661170911,439.3768620599267,1 45663U 20035G   26059.67635365  .00020955  00000+0  48526-3 0  9995,2 45663  53.0247  42.1764 0000637 226.5813 133.5139 15.42429110318280
STARLINK-1448,45665,53.052,0.0007203,15.50269931,411.04353274465666,420.8310761876701,1 45665U 20035J   26059.75994322  .00088774  00000+0  15319-2 0  9993,2 45665  53.0520  95.6637 0007203  39.8561 320.2975 15.50269931317531
STARLINK-1451,45668,53.0534,0.0001287,15.09512438,536.7987112722667,538.578844827538,1 45668U 20035M   26059.54541396  .00024611  00000+0  15305-2 0  9997,2 45668  53.0534 107.3307 0001287 348.1128  11.9832 15.09512438317369
STARLINK-1452,45669,53.0332,0.0008052,15.43287097,430.9286752945018,441.902831048209,1 45669U 20035N   26059.29540867  .00075310  00000+0  16575-2 0  9994,2 45669  53.0332  66.4329 0008052  16.9597 343.1675 15.43287097317916
STARLINK-1453,45670,53.0485,0.0008328,15.50232367,410.3888599505881,421.70525291498234,1 45670U 20035P   26059.68704002  .00098769  00000+0  17031-2 0  9993,2 45670  53.0485  56.6151 0008328   7.7485 352.3650 15.50232367317970
